NORAD_CAT_ID,OBJECT_NAME,OBJECT_TYPE,EPOCH,MEAN_MOTION,ECCENTRICITY,INCLINATION,RA_OF_ASC_NODE,ARG_OF_PERICENTER,MEAN_ANOMALY,BSTAR,MEAN_MOTION_DOT,MEAN_MOTION_DDOT,TLE_LINE0,TLE_LINE1,TLE_LINE2,SEMIMAJOR_AXIS,PERIOD,APOGEE,PERIGEE,DECAYED
51136.0,STARLINK-3253,PAYLOAD,2022-03-11 22:00:00,15.6596167,0.000165,53.2175,15.6799,39.8037,232.8003,-0.0075212,-0.00717569,0.0,0 STARLINK-3253,1 51136U 22005AJ  22070.91667824 -.00717569  00000-0 -75212-2 0  9995,2 51136  53.2175  15.6799 0001650  39.8037 232.8003 15.65961670  9519,6748.611,91.956,371.59,369.36300000000006,0.0
51136.0,STARLINK-3253,PAYLOAD,2022-03-12 14:00:01,15.64940043,0.0001433,53.2175,12.4183,38.9722,32.8561,-0.007808,-0.00715073,0.0,0 STARLINK-3253,1 51136U 22005AJ  22071.58334491 -.00715073  00000-0 -78080-2 0  9994,2 51136  53.2175  12.4183 0001433  38.9722  32.8561 15.64940043  3691,6751.5480000000025,92.016,374.381,372.446,0.0
51136.0,STARLINK-3253,PAYLOAD,2022-03-12 22:00:00,15.64430017,0.0001737,53.2177,10.7892,36.2252,114.2958,-0.0079641,-0.00714733,0.0,0 STARLINK-3253,1 51136U 22005AJ  22071.91667824 -.00714733  00000-0 -79641-2 0  9996,2 51136  53.2177  10.7892 0001737  36.2252 114.2958 15.64430017  9671,6753.016,92.046,376.054,373.708,0.0
51136.0,STARLINK-3253,PAYLOAD,2022-03-13 14:00:01,15.63411694,0.0001341999999999,53.2175,7.5347,47.5885,258.4789,-0.0083282,-0.00717426,0.0,0 STARLINK-3253,1 51136U 22005AJ  22072.58334491 -.00717426  00000-0 -83282-2 0  9999,2 51136  53.2175   7.5347 0001342  47.5885 258.4789 15.63411694  3695,6755.948,92.106,378.719,376.906,0.0
51136.0,STARLINK-3253,PAYLOAD,2022-03-13 20:00:01,15.63028923,0.000169,53.2176,6.3152,36.8079,236.9574,-0.0084301,-0.00715544,0.0,0 STARLINK-3253,1 51136U 22005AJ  22072.83334491 -.00715544  00000-0 -84301-2 0  9999,2 51136  53.2176   6.3152 0001690  36.8079 236.9574 15.63028923  9811,6757.051,92.129,380.057,377.774,0.0
51136.0,STARLINK-3253,PAYLOAD,2022-03-13 22:00:01,15.62902653,0.0001717,53.2176,5.9096,29.9467,353.0395,-0.0085151,-0.00718876,0.0,0 STARLINK-3253,1 51136U 22005AJ  22072.91668981 -.00718876  00000-0 -85151-2 0  9997,2 51136  53.2176   5.9096 0001717  29.9467 353.0395 15.62902653  3699,6757.4140000000025,92.136,380.44,378.119,0.0
51136.0,STARLINK-3253,PAYLOAD,2022-03-14 14:00:01,15.61879351,0.000153,53.2174,2.6622,45.7183,129.1394,-0.0087815,-0.00712685,0.0,0 STARLINK-3253,1 51136U 22005AJ  22073.58335648 -.00712685  00000-0 -87815-2 0  9993,2 51136  53.2174   2.6622 0001530  45.7183 129.1394 15.61879351  3687,6760.366,92.197,383.265,381.196,0.0
51136.0,STARLINK-3253,PAYLOAD,2022-03-14 20:00:01,15.61497624,0.0001678,53.2175,1.4458,39.4235,101.6881,-0.0089241,-0.00713507,0.0,0 STARLINK-3253,1 51136U 22005AJ  22073.83334491 -.00713507  00000-0 -89241-2 0  9995,2 51136  53.2175   1.4458 0001678  39.4235 101.6881 15.61497624  9976,6761.467,92.219,384.467,382.198,0.0
51136.0,STARLINK-3253,PAYLOAD,2022-03-15 02:00:01,15.61118439,0.0001548,53.2174,0.2321,45.9628,61.1209,-0.0091306,-0.0071882,0.0,0 STARLINK-3253,1 51136U 22005AJ  22074.08334491 -.00718820  00000-0 -91306-2 0  9991,2 51136  53.2174   0.2321 0001548  45.9628  61.1209 15.61118439  3674,6762.562,92.242,385.474,383.38,0.0
51136.0,STARLINK-3253,PAYLOAD,2022-03-15 20:00:01,15.59969392,0.0001564999999999,53.2178,356.5876,36.4484,326.493,-0.0095062,-0.00716114,0.0,0 STARLINK-3253,1 51136U 22005AJ  22074.83334491 -.00716114  00000-0 -95062-2 0  9991,2 51136  53.2178 356.5876 0001565  36.4484 326.4930 15.59969392 10129,6765.8830000000025,92.31,388.806,386.689,0.0
51136.0,STARLINK-3253,PAYLOAD,2022-03-15 22:00:00,15.59841001,0.0001742,53.2177,356.1839,33.3862,77.7922,-0.0095407,-0.00715285,0.0,0 STARLINK-3253,1 51136U 22005AJ  22074.91667824 -.00715285  00000-0 -95407-2 0  9990,2 51136  53.2177 356.1839 0001742  33.3862  77.7922 15.59841001  3682,6766.254,92.317,389.298,386.94,0.0
51136.0,STARLINK-3253,PAYLOAD,2022-03-16 14:00:01,15.58819604,0.0001551999999999,53.2175,352.9509,42.3369,213.3591,-0.0098755,-0.00712224,0.0,0 STARLINK-3253,1 51136U 22005AJ  22075.58334491 -.00712224  00000-0 -98755-2 0  9994,2 51136  53.2175 352.9509 0001552  42.3369 213.3591 15.58819604  3682,6769.209,92.378,392.125,390.024,0.0
51136.0,STARLINK-3253,PAYLOAD,2022-03-16 20:00:01,15.58437972,0.0001791,53.2176,351.7404,37.3014,181.9559,-0.010036,-0.00713312,0.0,0 STARLINK-3253,1 51136U 22005AJ  22075.83334491 -.00713312  00000-0 -10036-1 0  9996,2 51136  53.2176 351.7404 0001791  37.3014 181.9559 15.58437972 10282,6770.314,92.4,393.392,390.967,0.0
51136.0,STARLINK-3253,PAYLOAD,2022-03-17 14:00:01,15.57288937,0.0001506,53.2173,348.112,40.4032,67.4722,-0.010446,-0.00711008,0.0,0 STARLINK-3253,1 51136U 22005AJ  22076.58334491 -.00711008  00000-0 -10446-1 0  9994,2 51136  53.2173 348.1120 0001506  40.4032  67.4722 15.57288937  3706,6773.644,92.468,396.529,394.489,0.0
51136.0,STARLINK-3253,PAYLOAD,2022-03-17 22:00:00,15.56779429,0.0001626999999999,53.2174,346.5024,44.1497,133.2258,-0.010658,-0.00711642,0.0,0 STARLINK-3253,1 51136U 22005AJ  22076.91667824 -.00711642  00000-0 -10658-1 0  9999,2 51136  53.2174 346.5024 0001627  44.1497 133.2258 15.56779429  3708,6775.121999999999,92.499,398.089,395.885,0.0
51136.0,STARLINK-3253,PAYLOAD,2022-03-18 06:00:00,15.56270218,0.0001448,53.2173,344.8939,51.1371,195.1253,-0.010871,-0.00712079,0.0,0 STARLINK-3253,1 51136U 22005AJ  22077.25001157 -.00712079  00000-0 -10871-1 0  9990,2 51136  53.2173 344.8939 0001448  51.1371 195.1253 15.56270218 10503,6776.6,92.529,399.446,397.484,0.0
51136.0,STARLINK-3253,PAYLOAD,2022-03-18 14:00:01,15.55758946,0.0001485,53.2175,343.2839,40.6477,273.8919,-0.011055,-0.00710595,0.0,0 STARLINK-3253,1 51136U 22005AJ  22077.58334491 -.00710595  00000-0 -11055-1 0  9992,2 51136  53.2175 343.2839 0001485  40.6477 273.8919 15.55758946  3714,6778.084,92.559,400.956,398.943,0.0
51136.0,STARLINK-3253,PAYLOAD,2022-03-18 22:00:00,15.55252,0.0001613,53.2177,341.6784,35.5615,346.6386,-0.01135,-0.00715523,0.0,0 STARLINK-3253,1 51136U 22005AJ  22077.91667824 -.00715523  00000-0 -11350-1 0  9992,2 51136  53.2177 341.6784 0001613  35.5615 346.6386 15.55252000  3769,6779.557,92.589,402.516,400.329,0.0
51136.0,STARLINK-3253,PAYLOAD,2022-03-19 02:00:01,15.54995734,0.0001813,53.2177,340.8761,39.052,196.8143,-0.011417,-0.00713199,0.0,0 STARLINK-3253,1 51136U 22005AJ  22078.08335648 -.00713199  00000-0 -11417-1 0  9998,2 51136  53.2177 340.8761 0001813  39.0520 196.8143 15.54995734 10638,6780.302,92.605,403.396,400.93800000000016,0.0
51136.0,STARLINK-3253,PAYLOAD,2022-03-19 14:00:01,15.54230147,0.0001636,53.2172,338.4671,41.075,114.6129,-0.011725,-0.00712102,0.0,0 STARLINK-3253,1 51136U 22005AJ  22078.58334491 -.00712102  00000-0 -11725-1 0  9993,2 51136  53.2172 338.4671 0001636  41.0750 114.6129 15.54230147  3697,6782.528,92.65,405.503,403.284,0.0
51136.0,STARLINK-3253,PAYLOAD,2022-03-19 22:00:01,15.53718696,0.0001789,53.2174,336.8653,39.529,182.0476,-0.011903,-0.00709712,0.0,0 STARLINK-3253,1 51136U 22005AJ  22078.91668981 -.00709712  00000-0 -11903-1 0  9995,2 51136  53.2174 336.8653 0001789  39.5290 182.0476 15.53718696  3728,6784.017,92.681,407.095,404.668,0.0
51136.0,STARLINK-3253,PAYLOAD,2022-03-20 06:00:00,15.53212252,0.0001392,53.2172,335.2638,51.2047,235.5166,-0.012222,-0.00714812,0.0,0 STARLINK-3253,1 51136U 22005AJ  22079.25001157 -.00714812  00000-0 -12222-1 0  9991,2 51136  53.2172 335.2638 0001392  51.2047 235.5166 15.53212252 10818,6785.491,92.711,408.301,406.412,0.0
51136.0,STARLINK-3253,PAYLOAD,2022-03-20 14:00:01,15.52699051,0.0001441999999999,53.2173,333.6613,40.5964,310.726,-0.012368,-0.00710366,0.0,0 STARLINK-3253,1 51136U 22005AJ  22079.58334491 -.00710366  00000-0 -12368-1 0  9998,2 51136  53.2173 333.6613 0001442  40.5964 310.7260 15.52699051  3682,6786.986,92.742,409.83,407.87300000000016,0.0
51136.0,STARLINK-3253,PAYLOAD,2022-03-20 22:00:01,15.52191557,0.0001626999999999,53.2174,332.0634,35.7983,19.5725,-0.012669,-0.00714071,0.0,0 STARLINK-3253,1 51136U 22005AJ  22079.91668981 -.00714071  00000-0 -12669-1 0  9990,2 51136  53.2174 332.0634 0001627  35.7983  19.5725 15.52191557  3735,6788.465999999999,92.772,411.435,409.226,0.0
51136.0,STARLINK-3253,PAYLOAD,2022-03-21 06:00:00,15.51680955,0.0001439,53.2172,330.4654,47.2909,71.3881,-0.012876,-0.00712564,0.0,0 STARLINK-3253,1 51136U 22005AJ  22080.25001157 -.00712564  00000-0 -12876-1 0  9990,2 51136  53.2172 330.4654 0001439  47.2909  71.3881 15.51680955 10971,6789.955,92.803,412.797,410.843,0.0
51136.0,STARLINK-3253,PAYLOAD,2022-03-21 14:00:01,15.51171099,0.0001692,53.2172,328.8665,41.9425,139.4977,-0.013127,-0.00722357,0.0,0 STARLINK-3253,1 51136U 22005AJ  22080.58334491 -.00722357  00000-0 -13127-1 0  9997,2 51136  53.2172 328.8665 0001692  41.9425 139.4977 15.51171099  3696,6791.443,92.833,414.457,412.159,0.0
51136.0,STARLINK-3253,PAYLOAD,2022-03-21 22:00:00,15.50658976,0.0001861,53.2175,327.2724,37.4602,206.1272,-0.013295,-0.00718616,0.0,0 STARLINK-3253,1 51136U 22005AJ  22080.91667824 -.00718616  00000-0 -13295-1 0  9992,2 51136  53.2175 327.2724 0001861  37.4602 206.1272 15.50658976  3696,6792.938,92.864,416.067,413.539,0.0
51136.0,STARLINK-3253,PAYLOAD,2022-03-22 06:00:00,15.50152639,0.0001401,53.2173,325.6777,49.6806,255.4399,-0.013654,-0.00724268,0.0,0 STARLINK-3253,1 51136U 22005AJ  22081.25001157 -.00724268  00000-0 -13654-1 0  9990,2 51136  53.2173 325.6777 0001401  49.6806 255.4399 15.50152639 11124,6794.417,92.894,417.234,415.33,0.0
51136.0,STARLINK-3253,PAYLOAD,2022-03-22 14:00:01,15.49634886,0.0001489,53.2174,324.0828,39.9498,326.0959,-0.013622,-0.00710466,0.0,0 STARLINK-3253,1 51136U 22005AJ  22081.58334491 -.00710466  00000-0 -13622-1 0  9996,2 51136  53.2174 324.0828 0001489  39.9498 326.0959 15.49634886  3709,6795.93,92.925,418.807,416.783,0.0
